[{"OBJECT_NAME":"SL-8 R/B","OBJECT_ID":"1990-078B","EPOCH":"2026-03-03T12:39:35.388288","MEAN_MOTION":14.88816306,"ECCENTRICITY":0.0363742,"INCLINATION":82.8989,"RA_OF_ASC_NODE":256.8532,"ARG_OF_PERICENTER":34.7004,"MEAN_ANOMALY":327.7365,"EPHEMERIS_TYPE":0,"CLASSIFICATION_TYPE":"U","NORAD_CAT_ID":20775,"ELEMENT_SET_NO":999,"REV_AT_EPOCH":80838,"BSTAR":0.00054752,"MEAN_MOTION_DOT":0.00018627,"MEAN_MOTION_DDOT":0},{"OBJECT_NAME":"SL-8 R/B","OBJECT_ID":"1991-006B","EPOCH":"2026-03-03T18:00:56.052864","MEAN_MOTION":13.77493395,"ECCENTRICITY":0.0023381,"INCLINATION":82.9464,"RA_OF_ASC_NODE":174.4607,"ARG_OF_PERICENTER":54.3401,"MEAN_ANOMALY":55.7658,"EPHEMERIS_TYPE":0,"CLASSIFICATION_TYPE":"U","NORAD_CAT_ID":21088,"ELEMENT_SET_NO":999,"REV_AT_EPOCH":76325,"BSTAR":4.6936e-5,"MEAN_MOTION_DOT":6.2e-7,"MEAN_MOTION_DDOT":0},{"OBJECT_NAME":"OKEAN-3","OBJECT_ID":"1991-039A","EPOCH":"2026-03-03T18:15:34.024608","MEAN_MOTION":15.04753179,"ECCENTRICITY":0.0014304,"INCLINATION":82.5199,"RA_OF_ASC_NODE":342.5859,"ARG_OF_PERICENTER":359.7728,"MEAN_ANOMALY":0.349,"EPHEMERIS_TYPE":0,"CLASSIFICATION_TYPE":"U","NORAD_CAT_ID":21397,"ELEMENT_SET_NO":999,"REV_AT_EPOCH":86414,"BSTAR":0.00029702,"MEAN_MOTION_DOT":4.222e-5,"MEAN_MOTION_DDOT":0},{"OBJECT_NAME":"COSMOS 2151","OBJECT_ID":"1991-042A","EPOCH":"2026-03-03T17:55:11.424000","MEAN_MOTION":15.0007748,"ECCENTRICITY":0.0014137,"INCLINATION":82.493,"RA_OF_ASC_NODE":89.4105,"ARG_OF_PERICENTER":81.2901,"MEAN_ANOMALY":278.9924,"EPHEMERIS_TYPE":0,"CLASSIFICATION_TYPE":"U","NORAD_CAT_ID":21422,"ELEMENT_SET_NO":999,"REV_AT_EPOCH":86230,"BSTAR":0.00019337,"MEAN_MOTION_DOT":2.44e-5,"MEAN_MOTION_DDOT":0},{"OBJECT_NAME":"SL-14 R/B","OBJECT_ID":"1991-042B","EPOCH":"2026-03-03T14:42:32.760288","MEAN_MOTION":14.8182211,"ECCENTRICITY":0.0015601,"INCLINATION":82.4911,"RA_OF_ASC_NODE":225.881,"ARG_OF_PERICENTER":260.3492,"MEAN_ANOMALY":99.596,"EPHEMERIS_TYPE":0,"CLASSIFICATION_TYPE":"U","NORAD_CAT_ID":21423,"ELEMENT_SET_NO":999,"REV_AT_EPOCH":85217,"BSTAR":7.8027e-5,"MEAN_MOTION_DOT":6.4e-6,"MEAN_MOTION_DDOT":0},{"OBJECT_NAME":"ERS-1","OBJECT_ID":"1991-050A","EPOCH":"2026-03-03T15:35:48.107904","MEAN_MOTION":14.39443809,"ECCENTRICITY":0.0031298,"INCLINATION":98.7885,"RA_OF_ASC_NODE":80.7325,"ARG_OF_PERICENTER":218.6202,"MEAN_ANOMALY":141.2746,"EPHEMERIS_TYPE":0,"CLASSIFICATION_TYPE":"U","NORAD_CAT_ID":21574,"ELEMENT_SET_NO":999,"REV_AT_EPOCH":81486,"BSTAR":0.00014604,"MEAN_MOTION_DOT":4.11e-6,"MEAN_MOTION_DDOT":0},{"OBJECT_NAME":"ARIANE 40 R/B","OBJECT_ID":"1991-050F","EPOCH":"2026-03-03T17:09:51.780096","MEAN_MOTION":14.42888539,"ECCENTRICITY":0.0004363,"INCLINATION":98.2025,"RA_OF_ASC_NODE":115.1756,"ARG_OF_PERICENTER":94.1843,"MEAN_ANOMALY":265.9846,"EPHEMERIS_TYPE":0,"CLASSIFICATION_TYPE":"U","NORAD_CAT_ID":21610,"ELEMENT_SET_NO":999,"REV_AT_EPOCH":81813,"BSTAR":0.000132,"MEAN_MOTION_DOT":3.99e-6,"MEAN_MOTION_DDOT":0},{"OBJECT_NAME":"INTERCOSMOS 25","OBJECT_ID":"1991-086A","EPOCH":"2026-03-03T17:07:46.075008","MEAN_MOTION":12.1198064,"ECCENTRICITY":0.1487059,"INCLINATION":82.6063,"RA_OF_ASC_NODE":313.6198,"ARG_OF_PERICENTER":129.8064,"MEAN_ANOMALY":244.376,"EPHEMERIS_TYPE":0,"CLASSIFICATION_TYPE":"U","NORAD_CAT_ID":21819,"ELEMENT_SET_NO":999,"REV_AT_EPOCH":49596,"BSTAR":0.00031675,"MEAN_MOTION_DOT":1.65e-5,"MEAN_MOTION_DDOT":0},{"OBJECT_NAME":"SL-8 R/B","OBJECT_ID":"1992-008B","EPOCH":"2026-03-03T16:30:06.391872","MEAN_MOTION":13.75969819,"ECCENTRICITY":0.0035249,"INCLINATION":82.9227,"RA_OF_ASC_NODE":272.2443,"ARG_OF_PERICENTER":149.688,"MEAN_ANOMALY":277.7695,"EPHEMERIS_TYPE":0,"CLASSIFICATION_TYPE":"U","NORAD_CAT_ID":21876,"ELEMENT_SET_NO":999,"REV_AT_EPOCH":70859,"BSTAR":-8.989e-6,"MEAN_MOTION_DOT":7.0e-8,"MEAN_MOTION_DDOT":0},{"OBJECT_NAME":"SL-8 R/B","OBJECT_ID":"1992-020B","EPOCH":"2026-03-03T17:41:42.200736","MEAN_MOTION":13.75548671,"ECCENTRICITY":0.0027904,"INCLINATION":82.934,"RA_OF_ASC_NODE":158.1797,"ARG_OF_PERICENTER":316.1037,"MEAN_ANOMALY":152.9758,"EPHEMERIS_TYPE":0,"CLASSIFICATION_TYPE":"U","NORAD_CAT_ID":21938,"ELEMENT_SET_NO":999,"REV_AT_EPOCH":70031,"BSTAR":8.2038e-5,"MEAN_MOTION_DOT":9.4e-7,"MEAN_MOTION_DDOT":0},{"OBJECT_NAME":"USA 81","OBJECT_ID":"1992-023A","EPOCH":"2026-03-03T17:18:05.319360","MEAN_MOTION":14.32365688,"ECCENTRICITY":0.0002605,"INCLINATION":85.0096,"RA_OF_ASC_NODE":134.8842,"ARG_OF_PERICENTER":82.2583,"MEAN_ANOMALY":277.8905,"EPHEMERIS_TYPE":0,"CLASSIFICATION_TYPE":"U","NORAD_CAT_ID":21949,"ELEMENT_SET_NO":999,"REV_AT_EPOCH":9393,"BSTAR":8.0409e-5,"MEAN_MOTION_DOT":2.37e-6,"MEAN_MOTION_DDOT":0},{"OBJECT_NAME":"COSMOS 2219","OBJECT_ID":"1992-076A","EPOCH":"2026-03-03T08:48:10.381248","MEAN_MOTION":14.14089002,"ECCENTRICITY":0.00193338,"INCLINATION":71.0618,"RA_OF_ASC_NODE":31.2845,"ARG_OF_PERICENTER":215.5019,"MEAN_ANOMALY":144.4818,"EPHEMERIS_TYPE":0,"CLASSIFICATION_TYPE":"U","NORAD_CAT_ID":22219,"ELEMENT_SET_NO":999,"REV_AT_EPOCH":71748,"BSTAR":0.00018266337,"MEAN_MOTION_DOT":3.01e-6,"MEAN_MOTION_DDOT":0},{"OBJECT_NAME":"SL-16 R/B","OBJECT_ID":"1992-076B","EPOCH":"2026-03-03T18:35:25.990368","MEAN_MOTION":14.16859992,"ECCENTRICITY":0.0010607,"INCLINATION":70.9999,"RA_OF_ASC_NODE":200.8321,"ARG_OF_PERICENTER":107.3533,"MEAN_ANOMALY":356.6514,"EPHEMERIS_TYPE":0,"CLASSIFICATION_TYPE":"U","NORAD_CAT_ID":22220,"ELEMENT_SET_NO":999,"REV_AT_EPOCH":72099,"BSTAR":4.6882e-5,"MEAN_MOTION_DOT":4.6e-7,"MEAN_MOTION_DDOT":0},{"OBJECT_NAME":"COSMOS 2221","OBJECT_ID":"1992-080A","EPOCH":"2026-03-03T16:26:40.187904","MEAN_MOTION":14.96174039,"ECCENTRICITY":0.0013509,"INCLINATION":82.5018,"RA_OF_ASC_NODE":284.8336,"ARG_OF_PERICENTER":208.1164,"MEAN_ANOMALY":151.933,"EPHEMERIS_TYPE":0,"CLASSIFICATION_TYPE":"U","NORAD_CAT_ID":22236,"ELEMENT_SET_NO":999,"REV_AT_EPOCH":77989,"BSTAR":0.00019891,"MEAN_MOTION_DOT":2.269e-5,"MEAN_MOTION_DDOT":0},{"OBJECT_NAME":"SL-16 R/B","OBJECT_ID":"1992-093B","EPOCH":"2026-03-03T19:16:37.319808","MEAN_MOTION":14.15449511,"ECCENTRICITY":0.0006302,"INCLINATION":71.0238,"RA_OF_ASC_NODE":16.6219,"ARG_OF_PERICENTER":299.9749,"MEAN_ANOMALY":60.0748,"EPHEMERIS_TYPE":0,"CLASSIFICATION_TYPE":"U","NORAD_CAT_ID":22285,"ELEMENT_SET_NO":999,"REV_AT_EPOCH":71232,"BSTAR":-4.8818e-5,"MEAN_MOTION_DOT":-1.43e-6,"MEAN_MOTION_DDOT":0},{"OBJECT_NAME":"COSMOS 2228","OBJECT_ID":"1992-094A","EPOCH":"2026-03-03T18:32:11.349312","MEAN_MOTION":14.97154579,"ECCENTRICITY":0.0017181,"INCLINATION":82.5145,"RA_OF_ASC_NODE":242.9772,"ARG_OF_PERICENTER":325.7821,"MEAN_ANOMALY":34.2293,"EPHEMERIS_TYPE":0,"CLASSIFICATION_TYPE":"U","NORAD_CAT_ID":22286,"ELEMENT_SET_NO":999,"REV_AT_EPOCH":77517,"BSTAR":0.00029107,"MEAN_MOTION_DOT":3.396e-5,"MEAN_MOTION_DDOT":0},{"OBJECT_NAME":"SL-16 R/B","OBJECT_ID":"1993-016B","EPOCH":"2026-03-03T16:50:26.943072","MEAN_MOTION":14.15305278,"ECCENTRICITY":0.0011371,"INCLINATION":71.0058,"RA_OF_ASC_NODE":227.7577,"ARG_OF_PERICENTER":322.4959,"MEAN_ANOMALY":37.537,"EPHEMERIS_TYPE":0,"CLASSIFICATION_TYPE":"U","NORAD_CAT_ID":22566,"ELEMENT_SET_NO":999,"REV_AT_EPOCH":70132,"BSTAR":0.00018988,"MEAN_MOTION_DOT":3.22e-6,"MEAN_MOTION_DDOT":0}]
